{"type": "FeatureCollection", "name": "bukgu_boundary", "features": [{"type": "Feature", "properties": {"name": "대구광역시 북구"}, "geometry": {"type": "Polygon", "coordinates": [[[128.58017175330784, 35.87907855152337], [128.58020762892508, 35.87920214677423], [128.5820772502546, 35.885130682306496], [128.5810832588435, 35.88554581677039], [128.5767307288952, 35.88736347662027], [128.576146253639, 35.88760753881967], [128.56853467998562, 35.88881207718029], [128.56649746803825, 35.88910780715053], [128.56296730337635, 35.88962018068526], [128.55961370771263, 35.89009111514919], [128.55849479690497, 35.89024821549716], [128.55617043993652, 35.89057453190426], [128.55508663115938, 35.89077167376698], [128.55430874862776, 35.89127004632026], [128.55275153954577, 35.89306749294815], [128.55253999775456, 35.89331166376124], [128.5519741874193, 35.893964743062504], [128.5519032595585, 35.894046611367905], [128.5520338181984, 35.8941691097676], [128.5518960529664, 35.89434994025971], [128.55100701684472, 35.8955016068346], [128.55074359331186, 35.89541317338262], [128.54685606242026, 35.89410797840833], [128.54659458770928, 35.89402018412338], [128.5460136282352, 35.89382510966768], [128.5443545895071, 35.89313107250394], [128.54275173378363, 35.89246049685831], [128.54211473723828, 35.891349690222384], [128.53875705179254, 35.889312863374855], [128.5365788773045, 35.888422991064864], [128.53479777360968, 35.88797235445719], [128.53118408076648, 35.88762955655913], [128.5259944843905, 35.888896204941695], [128.52574309175677, 35.88914572929276], [128.5253617233727, 35.88952423734238], [128.52473750306046, 35.889750191806606], [128.52388223328614, 35.890049243003745], [128.52301476634506, 35.89032323926599], [128.5218773874606, 35.890656247352695], [128.51618438184798, 35.89226030768982], [128.51410386667752, 35.89278216538294], [128.51221045093376, 35.89309308020953], [128.51075409057748, 35.89304489287083], [128.5101867711206, 35.89300563206805], [128.50838904327966, 35.89278681752362], [128.50784289203045, 35.892681867258865], [128.50731664329382, 35.892526850353725], [128.50691788178807, 35.89235091338341], [128.50653527719726, 35.892115435420976], [128.50414624397732, 35.89058837900324], [128.50444995558595, 35.89316070373389], [128.5047525069054, 35.89875281318513], [128.505170449346, 35.90299688775738], [128.50705173879913, 35.90639760504958], [128.50717255354246, 35.90660460972974], [128.51031964971298, 35.90991961163809], [128.51054563919175, 35.91013932955213], [128.5108300621844, 35.91037862480898], [128.5109888332655, 35.91050556793962], [128.51116330759237, 35.91060369716338], [128.51127506640242, 35.910650377419834], [128.5136773810672, 35.911611306605636], [128.5137790768845, 35.911651412314974], [128.51393840325915, 35.91169354753539], [128.51402696515663, 35.9117065358329], [128.51415344740934, 35.91168178979933], [128.51422898140945, 35.911651417312925], [128.5142674091016, 35.911633381489516], [128.51438901219436, 35.911576305797134], [128.51788917661057, 35.91323732113578], [128.52196874991452, 35.91640130716895], [128.52284574865848, 35.917168137012304], [128.52315313179196, 35.91749182727567], [128.52321456066127, 35.917575963996605], [128.5232614353999, 35.91766348297391], [128.5232959204963, 35.91775266002168], [128.5233005579136, 35.91797681000337], [128.52329813972918, 35.9183781210506], [128.5232958678456, 35.918754650507736], [128.5232763302806, 35.91890903722719], [128.52322574131682, 35.919085210665], [128.52320445894532, 35.91919760218215], [128.5232042536467, 35.919250501241685], [128.5232449276453, 35.919339614711134], [128.52343111208626, 35.91959053429012], [128.52353711299472, 35.919722725408825], [128.5258645109842, 35.92234751809345], [128.52655686829803, 35.92275914764108], [128.5287274756142, 35.923550792196835], [128.5289005706077, 35.92358670641383], [128.5290529784417, 35.92361244960123], [128.5292449089798, 35.92360816267214], [128.52966140017898, 35.923584511626174], [128.5294467858622, 35.925585612920536], [128.52945166294742, 35.92580896320763], [128.52951961322637, 35.92841040606515], [128.52955370984537, 35.92856445250389], [128.52967195492045, 35.928711824175174], [128.5310097355282, 35.93005999771341], [128.53162493730676, 35.93051912426537], [128.53298851036678, 35.931479052081556], [128.5335362574102, 35.932196384704056], [128.5340231940727, 35.93360681023434], [128.53401189073136, 35.93384526699406], [128.53398609007112, 35.93406758721877], [128.53393226232419, 35.934288352943625], [128.53380385902452, 35.93465853607697], [128.53383088755365, 35.934829689495835], [128.5341104537805, 35.936170816454286], [128.53436768133727, 35.937128465287714], [128.53506262246276, 35.9387534716462], [128.53473531730725, 35.9413625191521], [128.53454506170843, 35.9427132545388], [128.53394593753538, 35.94624787655771], [128.5329664922281, 35.94946307225564], [128.53279684675763, 35.94969905766575], [128.53274362956307, 35.94981574242549], [128.5326969565569, 35.94998527055189], [128.53264599766797, 35.950318611297405], [128.53260879373462, 35.95066777497037], [128.53261028980853, 35.95101565990694], [128.53268070615553, 35.95215354589924], [128.5341049881702, 35.95696337254087], [128.5346317167506, 35.95844232275212], [128.53347388673808, 35.96035742159048], [128.53194336427634, 35.9613438293467], [128.53045014647464, 35.96249349524599], [128.53024964480161, 35.96466810960456], [128.5296706163401, 35.96843002512153], [128.52963653361647, 35.96856516116406], [128.52850264175777, 35.97149604987465], [128.52743030226875, 35.9742402645298], [128.52730192792475, 35.97445619031189], [128.52696124826835, 35.97526030786404], [128.52694860080157, 35.97535371602094], [128.52694168000815, 35.97549756933045], [128.52697084950202, 35.97567968936649], [128.5270093073374, 35.975827411374155], [128.5270933350991, 35.97594332956307], [128.5271685316275, 35.97601863982707], [128.52730706501018, 35.97612741070502], [128.52743676281446, 35.97619678079451], [128.52754552614414, 35.97622426268523], [128.52776908068793, 35.97628294662861], [128.52802585092977, 35.97635528625886], [128.52818576482926, 35.97643214907059], [128.5283787648029, 35.97654113708837], [128.52870090272523, 35.976811714488875], [128.5290471233719, 35.977105750190944], [128.5291793728578, 35.97725505695909], [128.52924217660876, 35.97737828872224], [128.52929271302153, 35.97753097753102], [128.52931324456563, 35.97763926444206], [128.52930638539306, 35.97777575249379], [128.52878575203, 35.98045044955973], [128.5308391877937, 35.9804323645742], [128.5326586862563, 35.97953053333144], [128.53286699431115, 35.97943734175761], [128.53359270874088, 35.97913718688032], [128.5338073788725, 35.9790544320342], [128.53402603811762, 35.97902395225783], [128.53419529780354, 35.97901416660859], [128.5368807171812, 35.97798874754304], [128.5420990718526, 35.97495092719846], [128.542226342545, 35.97486447723084], [128.54234587441394, 35.97474739472746], [128.54449787555941, 35.971176317307744], [128.5455068409631, 35.96932207549096], [128.5455910083381, 35.96915171685045], [128.5459866306191, 35.967861922350984], [128.5460117773546, 35.96762370956633], [128.54600481156365, 35.967457835984426], [128.5459502735516, 35.96729661348645], [128.5458676726794, 35.96719648584069], [128.54584831424845, 35.967115896216136], [128.54587314089449, 35.96693243569444], [128.54594645765118, 35.96658331506027], [128.54602742243512, 35.96628092457982], [128.54615189846444, 35.965989972239726], [128.54635563666037, 35.965691250520734], [128.5472180952038, 35.96449819945788], [128.54745742163948, 35.964210894465864], [128.5487945229356, 35.96291757967517], [128.54927132858398, 35.96250210495835], [128.5495648007118, 35.96225553228215], [128.5498097667436, 35.96209801491431], [128.55037505401364, 35.96179443597477], [128.55101287475577, 35.96151343590771], [128.5528507394137, 35.960737837875435], [128.5529557977377, 35.96074314128635], [128.55332241969217, 35.96076458659877], [128.55346622896755, 35.96103508639724], [128.5531616607628, 35.963431559096506], [128.55347110812897, 35.96375180491508], [128.55363289330822, 35.96389099682883], [128.55416320481154, 35.964303320520294], [128.5545934371016, 35.964606152519295], [128.55492125064916, 35.96483276013738], [128.55516435629738, 35.96500547320031], [128.55540605372627, 35.96518712080142], [128.55570095953703, 35.96541358202203], [128.5559630282467, 35.96562878079539], [128.55602701523665, 35.96571381008936], [128.55610220262184, 35.9659974761027], [128.556116007342, 35.96622512439691], [128.55608798068425, 35.96730948494431], [128.5560566068309, 35.96752135519096], [128.55598504248283, 35.96781339798242], [128.55597448584342, 35.96785363606749], [128.55591380947007, 35.968084887845066], [128.55584350071183, 35.96835286339145], [128.55581480271826, 35.96858036453735], [128.5557811299409, 35.968959577403986], [128.5557790717814, 35.96905529517361], [128.55577369625962, 35.96930541834392], [128.5558583917599, 35.96960920802925], [128.55624232647708, 35.97059243940414], [128.55686396459245, 35.97100531750857], [128.55721129159824, 35.97118512098872], [128.5577433508416, 35.97143254315618], [128.55829607290883, 35.97166663606886], [128.55858630691708, 35.97175472667223], [128.56211184377727, 35.97253752193469], [128.56416977885578, 35.972873042579316], [128.56605087236463, 35.974200860659856], [128.56605839486397, 35.97433030140595], [128.56610456986851, 35.974413035618035], [128.56618622955122, 35.974524916220346], [128.56633476983163, 35.9746994821259], [128.56679731169535, 35.97512959706512], [128.5670839504606, 35.97537833238451], [128.5671604047928, 35.97544108177758], [128.57196178192893, 35.97771429745414], [128.57207135348798, 35.977741476462285], [128.5722303257879, 35.977764357057076], [128.5723647005056, 35.977769305525435], [128.57715899122837, 35.977870867396234], [128.57721771434348, 35.9778710677041], [128.57864189190911, 35.977853536192946], [128.57916315524875, 35.97784144781277], [128.57951813527714, 35.97780490422701], [128.58014831164962, 35.9777102946618], [128.5803409836615, 35.97767515571871], [128.58062760642719, 35.977610511884976], [128.58082696958155, 35.977543570206606], [128.58124836700057, 35.97744292806239], [128.5814361148505, 35.97741441484609], [128.58318265430614, 35.977350944780206], [128.58406144692577, 35.97744677291165], [128.5855921708394, 35.97764041768513], [128.5856826336811, 35.97765334138466], [128.589846685644, 35.978720823557886], [128.59040753699202, 35.97887815188112], [128.59070333925837, 35.97899967902944], [128.59091728334175, 35.97911143326427], [128.59307524588746, 35.980431840716626], [128.593168435929, 35.98051463074748], [128.59321470727974, 35.98061626683668], [128.59365009501295, 35.98166122481748], [128.59367697488258, 35.98174378766449], [128.59367265084902, 35.981826234684746], [128.593648431983, 35.98198473355863], [128.59361648135373, 35.9821305045619], [128.59356378369915, 35.98251727566193], [128.59355161384732, 35.98260920181645], [128.59355134798992, 35.98265995134765], [128.59355898272128, 35.98269169549986], [128.5935822044711, 35.98272666033283], [128.5936444215021, 35.98276493266154], [128.59462870635355, 35.983266208917414], [128.59472599350806, 35.98331094480552], [128.59672389998582, 35.983926653602715], [128.5968680097755, 35.98396836773113], [128.59707054450607, 35.984026148466775], [128.59724595961904, 35.9840489327987], [128.59760477334828, 35.984059658656946], [128.5977710431973, 35.98406020363367], [128.5981944257582, 35.98404533972057], [128.5984766883292, 35.98406625607694], [128.59864226532392, 35.984096755516134], [128.59875254389468, 35.984139566039225], [128.60215297573535, 35.98556226319634], [128.60302161366815, 35.986164131058885], [128.6038415336013, 35.98852780446833], [128.60498348254706, 35.988373347019476], [128.60518804535255, 35.98832716971873], [128.60541887198812, 35.98826827539424], [128.60558156780513, 35.9882134290128], [128.6063795736422, 35.98788378249587], [128.60655811408546, 35.98780341742048], [128.60675778201562, 35.98768906910464], [128.60706253454322, 35.98751113671535], [128.60988426335632, 35.98584191794967], [128.61051000842969, 35.98537959069772], [128.61090439244256, 35.98508266615633], [128.6132254515207, 35.9829175496534], [128.61335187819446, 35.982773112092765], [128.61349956775712, 35.982569108580705], [128.6138428726416, 35.982003624237386], [128.61389043855104, 35.9819185727088], [128.61390656122578, 35.98183343266308], [128.61391241629204, 35.981709891121895], [128.61389296146416, 35.98140311046329], [128.61391457268047, 35.98126684968719], [128.61400965909937, 35.981105273767454], [128.6146850950849, 35.98011059033797], [128.61498049454696, 35.97969405642715], [128.6153653251396, 35.979201127467526], [128.61664059056346, 35.977672347271316], [128.61762947756725, 35.9775002699338], [128.61858939538067, 35.97676934572932], [128.61909145737937, 35.97625713399806], [128.61948623550978, 35.974975733760765], [128.6195084699662, 35.97419844818142], [128.61941412636278, 35.974055622257325], [128.61900059864286, 35.97350678426383], [128.61866644971172, 35.97308383474136], [128.6181009224601, 35.97231318625567], [128.6179515378074, 35.971281286002785], [128.61790441789657, 35.97084427371752], [128.61839878996312, 35.97029692738063], [128.61862305086257, 35.970157229443245], [128.6191945981572, 35.96980829000524], [128.62057121258604, 35.9681514728533], [128.6248726677102, 35.96086704905606], [128.62623910109653, 35.958440194039945], [128.62586402929765, 35.95642368823201], [128.62560427054953, 35.95625823180211], [128.62537804674994, 35.95611371066727], [128.62520925721455, 35.95600493692664], [128.6241813905673, 35.954745792874036], [128.62354166714283, 35.95251835252075], [128.6231633786422, 35.94966391047751], [128.6230992470197, 35.94866934525969], [128.62339950003457, 35.947305603430934], [128.62570330467844, 35.94647997747949], [128.626182341172, 35.946270126981446], [128.62670641745635, 35.945991845303595], [128.62701711339687, 35.9457014858099], [128.62692941983644, 35.94436553445857], [128.62667484502268, 35.940575354768015], [128.6264731487785, 35.93907181380487], [128.6263492125353, 35.93897060602884], [128.62620587222784, 35.93885492280665], [128.62601392330401, 35.93870073589343], [128.62584356645579, 35.938565543718354], [128.6255758171424, 35.93837941295305], [128.6250425252665, 35.93801130938045], [128.62489276644953, 35.937470831416995], [128.6248329274361, 35.936983400682436], [128.6248092000875, 35.93660745155142], [128.62505876520396, 35.93601442190903], [128.625204743965, 35.9358356565559], [128.625853833096, 35.93486649519541], [128.62824692760373, 35.930342562304325], [128.62862031839967, 35.92994011091866], [128.62927133464234, 35.929363088886575], [128.63054360612503, 35.92861729665243], [128.63063926418414, 35.928512684996534], [128.63081986104487, 35.9282967935985], [128.63099381282302, 35.92808316071382], [128.63167056794296, 35.92716908037813], [128.6317407877024, 35.92701612582602], [128.63191830581582, 35.92662325234634], [128.6319781984922, 35.92649013356621], [128.63198498980273, 35.92645225580601], [128.63204031515824, 35.92608101934228], [128.6320457535542, 35.92604185790571], [128.63205010000144, 35.925963963545435], [128.6320551125237, 35.92565006769066], [128.63206154139598, 35.92522364047145], [128.63206877634866, 35.92462382935864], [128.63215693704723, 35.92047227004956], [128.6321941011344, 35.91995849884866], [128.63231348306175, 35.91883624894383], [128.63249026558364, 35.91791522269558], [128.6325393358441, 35.91782312972479], [128.6327236871369, 35.917083151516664], [128.63272856672396, 35.91705382669208], [128.63281009390366, 35.91656346450049], [128.6328718225355, 35.91579159022414], [128.63287800540766, 35.9156558699948], [128.6326834851652, 35.91477087954288], [128.63239219115115, 35.91398190792726], [128.63191417703098, 35.91268718159822], [128.63169395991247, 35.91210033746785], [128.6311391399324, 35.91062183767593], [128.62975770435165, 35.90899448970212], [128.62948505853385, 35.90874224619686], [128.62888361421335, 35.90816252139366], [128.62844231567036, 35.90766869134479], [128.62831663907096, 35.90752787778145], [128.62820312272976, 35.90729548723418], [128.62800808310823, 35.906871880280946], [128.62758376886262, 35.90592286330548], [128.62748153319126, 35.90569864320533], [128.6274150076673, 35.905549688394835], [128.62725455519484, 35.90479722997629], [128.62723685209178, 35.904140656576104], [128.62829547197984, 35.9003367542824], [128.628599042338, 35.89953174527987], [128.62893498574778, 35.8987438599616], [128.62976694365761, 35.89688550100366], [128.63006348519968, 35.89638784735528], [128.63192103714917, 35.89343895780224], [128.63118699372592, 35.89302667935116], [128.6309021024259, 35.892697408156934], [128.63054216794515, 35.89226155585857], [128.63042350504418, 35.89207218418856], [128.63037693919304, 35.89195852166659], [128.63025606742556, 35.891410096414816], [128.63021629279456, 35.89137773076747], [128.63009918634972, 35.89128244393593], [128.62900653488845, 35.89039339238304], [128.6289644086476, 35.890359119986954], [128.62805959662535, 35.88962685554622], [128.6257416456374, 35.890910035324865], [128.62223564703547, 35.89246562550892], [128.61988832408494, 35.89089066189775], [128.61741984075232, 35.889251458866404], [128.61703163792157, 35.88879134177774], [128.61579420267893, 35.88658771138318], [128.61438849123718, 35.88506370723585], [128.61209136522658, 35.881789955574106], [128.61161496738694, 35.88049497531174], [128.6099049589523, 35.87892831814575], [128.60894902421717, 35.87842381991771], [128.60796265790563, 35.87790325208643], [128.6071827161218, 35.87749161020241], [128.6068635359519, 35.87693730060564], [128.60676887073197, 35.876599996042145], [128.6103234899718, 35.874896028820494], [128.60968725744635, 35.8746309418859], [128.6075654595083, 35.874054841311576], [128.6061733915107, 35.87383112239123], [128.60584850128683, 35.87384636073259], [128.60445139526493, 35.873911879738515], [128.60347991538876, 35.874083541037066], [128.60150705186726, 35.874651289239324], [128.60136171435073, 35.87480494604067], [128.5991411135269, 35.87546406962741], [128.59494637524298, 35.875297745352825], [128.59491665007616, 35.876309776132445], [128.58837879477232, 35.8775254076706], [128.58017175330784, 35.87907855152337]]]}}]}